#dP2019  2 22  0  0  0.00000000      96 __u+U IGS08 FIT  IAC
## 2041 432000.00000000   900.00000000 58536 0.0000000000000
+   96   C01C02C03C04C05C06C07C08C09C10C11C12C13C14C16E01E02
+        E03E04E05E07E08E09E11E12E13E14E15E19E21E24E25E26E27
+        E30E31E33E36G01G02G03G04G05G06G07G08G09G10G11G12G13
+        G14G15G16G17G18G19G20G21G22G23G24G25G26G27G28G29G30
+        G31G32J01J02J03R01R02R03R04R05R07R08R09R10R11R13R14
+        R15R16R17R18R19R20R21R22R23R24R26  0  0  0  0  0  0
++        13 12 12 12 12  8  8  8  8  8  7  7  8  8  8  4  4
++         4  4  4  4  4  4  4  4  4  5  4  4  4  4  4  4  4
++         4  4  5  5  3  3  3  4  4  3  3  3  3  3  3  3  3
++         3  3  3  3  3  3  3  3  3  3  3  3  3  3  3  3  3
++         3  3  9  9 10  6  7  5  5  5  5  5  7  5  5  6  5
++         5  6  5  5  5  6  5  5  5  6  8  0  0  0  0  0  0
%c M  cc GPS ccc cccc cccc cccc cccc ccccc ccccc ccccc ccccc
%c cc cc ccc ccc cccc cccc cccc cccc ccccc ccccc ccccc ccccc
%f  1.2500000  1.025000000  0.00000000000  0.000000000000000
%f  0.0000000  0.000000000  0.00000000000  0.000000000000000
%i    0    0    0    0      0      0      0      0         0
%i    0    0    0    0      0      0      0      0         0
/* INFORMATION & ANALYSIS CENTER (IAC)            FINAL DATA
/* S/V CLOCKS ARE ALIGNED TO GPS & GLONASS TIME RESPECTIVELY
/* USING THE BROADCAST EPHEMERIS                            
/* PCV:IGS14_2038 OL/AL:FES2004  NONE     YN ORB:CoN CLK:CoN
*  2019 02 22  8  0  0.00000000
PC01 -32289.844659  27119.869918    577.095572    246.515680
PC02   4331.004075  41903.374951  -1203.194772   -335.227528
PC03 -14746.072674  39458.920199    -57.757689   -175.812724
PC04 -39632.901231  14442.333307    205.607388    -45.996036
PC05  21853.016153  36007.244171  -1387.463396    -43.569501
PC06 -12153.436281  38395.732795 -11515.265518    438.283878
PC07  -9798.684959  24233.119062  33237.908198    133.829287
PC08 -25682.427738  26259.883057 -20852.806808    116.493404
PC09  -4904.348550  41675.691383   1382.489927    551.808308
PC10   3752.222516  29599.072389  30054.911360   -515.132898
PC11 -16638.663388  22126.048481   3811.506716    -17.880493
PC12 -16173.356042  -2287.889918  22707.789178    439.737041
PC13 -12206.412468  27776.014253 -29327.124121   -555.654373
PC14 -15021.813495   5809.721156 -22731.769399    827.087765
PC16 -10736.602187  39279.319163 -10611.342442   -253.288572
PE01  -2925.316107  16301.471963  24529.387171   -547.767259
PE02   2857.506588 -16328.824558 -24527.478611     48.614197
PE03   3367.285016 -27903.551668   9265.731652   -136.352720
PE04   9597.914219  26479.863424   9103.322793   -226.362136
PE05  14448.416866 -12990.694626  22330.223670    103.267139
PE07 -17031.727127  -9458.417235 -22279.129420   -136.338466
PE08  -9813.031035 -26356.471719  -9213.468106   6400.062052
PE09  16983.893293   9338.822486  22379.454317   6520.474818
PE11  22188.747920   -466.818750 -19591.206533   5718.969678
PE12   6257.825260  15645.518227 -24320.937921   6223.306405
PE13 -22041.339722    442.891118  19762.637539    383.308965
PE14  -8055.147879  25597.640584   -141.519618   6441.243014
PE15  -6617.381483 -15356.850422  24439.992572    919.282466
PE19  -4557.267774  27079.091899 -11044.319277     -8.212721
PE21 -21950.911928   4469.255023  19344.840426   -520.754530
PE24  27760.148778   9710.546521  -3254.995995   6220.355720
PE25  21977.161204  -4441.494289 -19321.698254   1885.855330
PE26 -24799.688059  15769.586912   3549.481730   4875.424973
PE27 -27767.911478  -9888.417779   2757.854640    524.180897
PE30 -17539.430731 -18487.121385 -15082.640812   5087.013015
PE31  17282.360874  18425.797562  15428.670031    900.317049
PE33 -12739.988501  22217.487062 -14817.887225    847.971985
PE36  24618.630427 -16069.740606  -3463.074288    744.604863
PG01   2319.600127  14885.788697 -22028.994900   -167.851243
PG02  19088.372036 -15059.752446  11072.489392   -146.259636
PG03   9984.102389  21473.899489 -12136.112651    184.026389
PG04  12686.578739   9716.401373  21224.818445    119.364112
PG05   8747.750006 -12800.016488  21434.254299      1.118119
PG06  25542.439979  -7345.314476     -3.713147    270.352431
PG07  17316.981346   8898.900546  18511.846761     27.846879
PG08  -5732.209407  25817.987698   -536.875186   -133.675457
PG09  10149.577204  15564.666153  18928.862537    455.103265
PG10 -21555.382598  -7629.088866 -13621.252384    111.740733
PG11  -1447.269557  19976.060978 -18083.709240   -656.283812
PG12  -7175.376459 -21712.001696 -13872.775053    265.874837
PG13  12814.003974 -22529.463500   5595.838329    -74.100502
PG14 -16487.768692  10649.265911 -17502.736723    -90.807714
PG15   1833.118467 -26142.994456  -2959.046223   -326.726731
PG16  -8374.539913  12376.957146  21738.772342    -20.845308
PG17  15127.218039   -772.866196 -21398.261727     13.408643
PG18  -8416.656990  17061.872496 -18959.772945     28.411359
PG19  16677.361275 -10153.181797 -18345.149727   -349.781034
PG20 -22707.065224 -13257.660252  -4360.804415    522.452379
PG21 -19770.078908  -6335.852863  17311.662384   -245.463950
PG22   3453.700910  19781.552854 -17172.881166   -650.453773
PG23   3499.191878  23382.870391  11992.745775   -196.401407
PG24   1896.952751 -16639.120442 -20703.153511    -62.486889
PG25 -16840.511436 -20351.859723  -4097.420138   -723.921717
PG26 -16152.208921   4930.672957  20524.369466    131.140010
PG27 -11822.640061  21671.149824   9304.636406    -72.492461
PG28  20339.476461  10857.833821 -12492.475447    765.107119
PG29  -5480.900328 -19701.296290  16926.902131    264.885226
PG30  24697.421252   1565.970133   9893.077763    -56.880660
PG31 -25675.203733   7559.874545   1464.912505     56.908155
PG32 -16024.260224   4147.707850 -20707.549040   -214.533828
PJ01 -18009.292279  24414.977753 -24677.114495   -182.082568
PJ02 -30052.136781  21535.741538  24996.827045     -0.247505
PJ03 -29078.053010  27967.841091  17374.570258     -0.186045
PR01 -10380.967058 -22821.549686  -4658.270381     39.802603
PR02 -12819.004144  -7678.092124 -20652.686739    355.551230
PR03  -7286.246870  10980.580079 -21794.357827     -8.339671
PR04   2883.186329  23353.525297  -9813.354321    296.123309
PR05  10834.659201  21997.267562   6999.694849     22.665080
PR07   7058.680654 -11507.823737  21682.888225    -58.409700
PR08  -2380.891565 -23119.640514  10569.728577     18.957640
PR09  25067.288260   3668.861552  -3235.521641     55.577160
PR10  18282.763422  -4219.751324 -17342.307643     42.812645
PR11     85.491245 -11232.798409 -22889.136627    -57.522837
PR13 -25119.210612  -4044.032406   1823.341557    -20.441678
PR14 -18192.113647   4589.691556  17285.393495     36.232102
PR15   -992.118031  10901.680053  23055.434268    100.125696
PR16  17000.953168  10819.706786  15533.401875     10.979801
PR17 -18470.707811  16658.351291   5745.358192    206.577768
PR18 -11128.440124  19998.099897 -11177.644614     33.436681
PR19   1908.211990  12526.881052 -22129.675179    -61.022202
PR20  15506.968130  -3410.281475 -19967.514130   -369.609207
PR21  18338.904933 -16947.481293  -5150.647463    -32.688669
PR22   9547.926078 -19576.882967  13396.019722     -5.618415
PR23  -6131.756540  -8815.723881  23137.631424    211.110635
PR24 -16128.844852   4979.031017  19099.210080   -177.470771
PR26  14306.922559  -1680.568808 -21027.777847     -2.650232
EOF
